CCSDS_OMM_VERS = 2.0
CREATION_DATE  = 
ORIGINATOR     = 

OBJECT_NAME    = COSMOS 1933
OBJECT_ID      = 1988-020A
CENTER_NAME    = EARTH
REF_FRAME      = TEME
TIME_SYSTEM    = UTC
MEAN_ELEMENT_THEORY = SGP/SGP4

EPOCH          = 2026-01-22T12:12:30.740832
MEAN_MOTION    = 15.17540434
ECCENTRICITY   = .0004991
INCLINATION    = 82.5141
RA_OF_ASC_NODE = 296.5908
ARG_OF_PERICENTER = 24.9274
MEAN_ANOMALY   = 335.2199

EPHEMERIS_TYPE = 0
CLASSIFICATION_TYPE = U
NORAD_CAT_ID   = 18958
ELEMENT_SET_NO = 999
REV_AT_EPOCH   = 4322
BSTAR          = .29411E-3
MEAN_MOTION_DOT = .5931E-4
MEAN_MOTION_DDOT = 0

CCSDS_OMM_VERS = 2.0
CREATION_DATE  = 
ORIGINATOR     = 

OBJECT_NAME    = SL-3 R/B
OBJECT_ID      = 1988-032B
CENTER_NAME    = EARTH
REF_FRAME      = TEME
TIME_SYSTEM    = UTC
MEAN_ELEMENT_THEORY = SGP/SGP4

EPOCH          = 2026-01-22T10:34:51.947328
MEAN_MOTION    = 15.19250578
ECCENTRICITY   = .0027649
INCLINATION    = 97.5129
RA_OF_ASC_NODE = 5.9028
ARG_OF_PERICENTER = 38.5533
MEAN_ANOMALY   = 321.7669

EPHEMERIS_TYPE = 0
CLASSIFICATION_TYPE = U
NORAD_CAT_ID   = 19046
ELEMENT_SET_NO = 999
REV_AT_EPOCH   = 4508
BSTAR          = .36759E-3
MEAN_MOTION_DOT = .7757E-4
MEAN_MOTION_DDOT = 0

CCSDS_OMM_VERS = 2.0
CREATION_DATE  = 
ORIGINATOR     = 

OBJECT_NAME    = SL-16 R/B
OBJECT_ID      = 1988-039B
CENTER_NAME    = EARTH
REF_FRAME      = TEME
TIME_SYSTEM    = UTC
MEAN_ELEMENT_THEORY = SGP/SGP4

EPOCH          = 2026-01-22T11:23:46.460256
MEAN_MOTION    = 14.19608473
ECCENTRICITY   = .0020096
INCLINATION    = 71.0142
RA_OF_ASC_NODE = 166.2680
ARG_OF_PERICENTER = 46.7641
MEAN_ANOMALY   = 313.5158

EPHEMERIS_TYPE = 0
CLASSIFICATION_TYPE = U
NORAD_CAT_ID   = 19120
ELEMENT_SET_NO = 999
REV_AT_EPOCH   = 95182
BSTAR          = .33563E-4
MEAN_MOTION_DOT = .23E-6
MEAN_MOTION_DDOT = 0

CCSDS_OMM_VERS = 2.0
CREATION_DATE  = 
ORIGINATOR     = 

OBJECT_NAME    = COSMOS 1953
OBJECT_ID      = 1988-050A
CENTER_NAME    = EARTH
REF_FRAME      = TEME
TIME_SYSTEM    = UTC
MEAN_ELEMENT_THEORY = SGP/SGP4

EPOCH          = 2026-01-22T12:34:32.791296
MEAN_MOTION    = 15.27528408
ECCENTRICITY   = .0010381
INCLINATION    = 82.5068
RA_OF_ASC_NODE = 204.6386
ARG_OF_PERICENTER = 289.5731
MEAN_ANOMALY   = 70.4387

EPHEMERIS_TYPE = 0
CLASSIFICATION_TYPE = U
NORAD_CAT_ID   = 19210
ELEMENT_SET_NO = 999
REV_AT_EPOCH   = 3073
BSTAR          = .37528E-3
MEAN_MOTION_DOT = .10152E-3
MEAN_MOTION_DDOT = 0

CCSDS_OMM_VERS = 2.0
CREATION_DATE  = 
ORIGINATOR     = 

OBJECT_NAME    = SL-8 R/B
OBJECT_ID      = 1988-053B
CENTER_NAME    = EARTH
REF_FRAME      = TEME
TIME_SYSTEM    = UTC
MEAN_ELEMENT_THEORY = SGP/SGP4

EPOCH          = 2026-01-22T11:39:19.829952
MEAN_MOTION    = 14.38884969
ECCENTRICITY   = .0019648
INCLINATION    = 74.0457
RA_OF_ASC_NODE = 197.6225
ARG_OF_PERICENTER = 27.0582
MEAN_ANOMALY   = 3.5132

EPHEMERIS_TYPE = 0
CLASSIFICATION_TYPE = U
NORAD_CAT_ID   = 19257
ELEMENT_SET_NO = 999
REV_AT_EPOCH   = 96995
BSTAR          = .1348E-3
MEAN_MOTION_DOT = .39E-5
MEAN_MOTION_DDOT = 0

CCSDS_OMM_VERS = 2.0
CREATION_DATE  = 
ORIGINATOR     = 

OBJECT_NAME    = COSMOS 1975
OBJECT_ID      = 1988-093A
CENTER_NAME    = EARTH
REF_FRAME      = TEME
TIME_SYSTEM    = UTC
MEAN_ELEMENT_THEORY = SGP/SGP4

EPOCH          = 2026-01-22T11:31:36.723360
MEAN_MOTION    = 15.27160798
ECCENTRICITY   = .001104
INCLINATION    = 82.5215
RA_OF_ASC_NODE = 164.0237
ARG_OF_PERICENTER = 338.8318
MEAN_ANOMALY   = 21.2462

EPHEMERIS_TYPE = 0
CLASSIFICATION_TYPE = U
NORAD_CAT_ID   = 19573
ELEMENT_SET_NO = 999
REV_AT_EPOCH   = 1235
BSTAR          = .36684E-3
MEAN_MOTION_DOT = .9816E-4
MEAN_MOTION_DDOT = 0

CCSDS_OMM_VERS = 2.0
CREATION_DATE  = 
ORIGINATOR     = 

OBJECT_NAME    = SL-14 R/B
OBJECT_ID      = 1988-093B
CENTER_NAME    = EARTH
REF_FRAME      = TEME
TIME_SYSTEM    = UTC
MEAN_ELEMENT_THEORY = SGP/SGP4

EPOCH          = 2026-01-22T10:45:51.242400
MEAN_MOTION    = 14.85602076
ECCENTRICITY   = .0020521
INCLINATION    = 82.5299
RA_OF_ASC_NODE = 85.4636
ARG_OF_PERICENTER = 186.9802
MEAN_ANOMALY   = 183.7199

EPHEMERIS_TYPE = 0
CLASSIFICATION_TYPE = U
NORAD_CAT_ID   = 19574
ELEMENT_SET_NO = 999
REV_AT_EPOCH   = 99417
BSTAR          = .96716E-4
MEAN_MOTION_DOT = .864E-5
MEAN_MOTION_DDOT = 0

CCSDS_OMM_VERS = 2.0
CREATION_DATE  = 
ORIGINATOR     = 

OBJECT_NAME    = SL-16 R/B
OBJECT_ID      = 1988-102B
CENTER_NAME    = EARTH
REF_FRAME      = TEME
TIME_SYSTEM    = UTC
MEAN_ELEMENT_THEORY = SGP/SGP4

EPOCH          = 2026-01-22T08:33:13.608864
MEAN_MOTION    = 14.16147934
ECCENTRICITY   = .0011918
INCLINATION    = 70.9980
RA_OF_ASC_NODE = 248.9841
ARG_OF_PERICENTER = 79.6307
MEAN_ANOMALY   = 280.6159

EPHEMERIS_TYPE = 0
CLASSIFICATION_TYPE = U
NORAD_CAT_ID   = 19650
ELEMENT_SET_NO = 999
REV_AT_EPOCH   = 92033
BSTAR          = .66232E-4
MEAN_MOTION_DOT = .83E-6
MEAN_MOTION_DDOT = 0

CCSDS_OMM_VERS = 2.0
CREATION_DATE  = 
ORIGINATOR     = 

OBJECT_NAME    = INTERCOSMOS 24
OBJECT_ID      = 1989-080A
CENTER_NAME    = EARTH
REF_FRAME      = TEME
TIME_SYSTEM    = UTC
MEAN_ELEMENT_THEORY = SGP/SGP4

EPOCH          = 2026-01-22T08:05:32.097984
MEAN_MOTION    = 12.59495783
ECCENTRICITY   = .1188849
INCLINATION    = 82.6079
RA_OF_ASC_NODE = 134.5633
ARG_OF_PERICENTER = 40.3988
MEAN_ANOMALY   = 327.9515

EPHEMERIS_TYPE = 0
CLASSIFICATION_TYPE = U
NORAD_CAT_ID   = 20261
ELEMENT_SET_NO = 999
REV_AT_EPOCH   = 66096
BSTAR          = .22409E-3
MEAN_MOTION_DOT = .785E-5
MEAN_MOTION_DDOT = 0

CCSDS_OMM_VERS = 2.0
CREATION_DATE  = 
ORIGINATOR     = 

OBJECT_NAME    = SL-14 R/B
OBJECT_ID      = 1989-080C
CENTER_NAME    = EARTH
REF_FRAME      = TEME
TIME_SYSTEM    = UTC
MEAN_ELEMENT_THEORY = SGP/SGP4

EPOCH          = 2026-01-22T11:12:31.662432
MEAN_MOTION    = 12.50443438
ECCENTRICITY   = .1229586
INCLINATION    = 82.5919
RA_OF_ASC_NODE = 202.8654
ARG_OF_PERICENTER = 290.4802
MEAN_ANOMALY   = 56.8645

EPHEMERIS_TYPE = 0
CLASSIFICATION_TYPE = U
NORAD_CAT_ID   = 20262
ELEMENT_SET_NO = 999
REV_AT_EPOCH   = 65437
BSTAR          = .11494E-3
MEAN_MOTION_DOT = .379E-5
MEAN_MOTION_DDOT = 0

CCSDS_OMM_VERS = 2.0
CREATION_DATE  = 
ORIGINATOR     = 

OBJECT_NAME    = DELTA 1 R/B
OBJECT_ID      = 1989-089B
CENTER_NAME    = EARTH
REF_FRAME      = TEME
TIME_SYSTEM    = UTC
MEAN_ELEMENT_THEORY = SGP/SGP4

EPOCH          = 2026-01-22T11:24:11.131776
MEAN_MOTION    = 14.50616064
ECCENTRICITY   = .0067537
INCLINATION    = 97.0733
RA_OF_ASC_NODE = 237.2538
ARG_OF_PERICENTER = 268.8052
MEAN_ANOMALY   = 90.5408

EPHEMERIS_TYPE = 0
CLASSIFICATION_TYPE = U
NORAD_CAT_ID   = 20323
ELEMENT_SET_NO = 999
REV_AT_EPOCH   = 88903
BSTAR          = .20104E-3
MEAN_MOTION_DOT = .776E-5
MEAN_MOTION_DDOT = 0

CCSDS_OMM_VERS = 2.0
CREATION_DATE  = 
ORIGINATOR     = 

OBJECT_NAME    = ARIANE 40 R/B
OBJECT_ID      = 1990-005H
CENTER_NAME    = EARTH
REF_FRAME      = TEME
TIME_SYSTEM    = UTC
MEAN_ELEMENT_THEORY = SGP/SGP4

EPOCH          = 2026-01-22T09:25:54.813792
MEAN_MOTION    = 14.39834412
ECCENTRICITY   = .0009726
INCLINATION    = 98.3180
RA_OF_ASC_NODE = 84.4107
ARG_OF_PERICENTER = 350.9543
MEAN_ANOMALY   = 9.1469

EPHEMERIS_TYPE = 0
CLASSIFICATION_TYPE = U
NORAD_CAT_ID   = 20443
ELEMENT_SET_NO = 999
REV_AT_EPOCH   = 88614
BSTAR          = .2217E-3
MEAN_MOTION_DOT = .654E-5
MEAN_MOTION_DDOT = 0

