COSMOS 1933             
1 18958U 88020A   26022.50868913  .00005931  00000+0  29411-3 0  9998
2 18958  82.5141 296.5908 0004991  24.9274 335.2199 15.17540434 43221
SL-3 R/B                
1 19046U 88032B   26022.44087902  .00007757  00000+0  36759-3 0  9995
2 19046  97.5129   5.9028 0027649  38.5533 321.7669 15.19250578 45088
SL-16 R/B               
1 19120U 88039B   26022.47484329  .00000023  00000+0  33563-4 0  9992
2 19120  71.0142 166.2680 0020096  46.7641 313.5158 14.19608473951828
COSMOS 1953             
1 19210U 88050A   26022.52399064  .00010152  00000+0  37528-3 0  9990
2 19210  82.5068 204.6386 0010381 289.5731  70.4387 15.27528408 30735
SL-8 R/B                
1 19257U 88053B   26022.48564618  .00000390  00000+0  13480-3 0  9992
2 19257  74.0457 197.6225 0019648  27.0582   3.5132 14.38884969969959
COSMOS 1975             
1 19573U 88093A   26022.48028615  .00009816  00000+0  36684-3 0  9992
2 19573  82.5215 164.0237 0011040 338.8318  21.2462 15.27160798 12357
SL-14 R/B               
1 19574U 88093B   26022.44850975  .00000864  00000+0  96716-4 0  9998
2 19574  82.5299  85.4636 0020521 186.9802 183.7199 14.85602076994176
SL-16 R/B               
1 19650U 88102B   26022.35640751  .00000083  00000+0  66232-4 0  9996
2 19650  70.9980 248.9841 0011918  79.6307 280.6159 14.16147934920332
INTERCOSMOS 24          
1 20261U 89080A   26022.33717706  .00000785  00000+0  22409-3 0  9991
2 20261  82.6079 134.5633 1188849  40.3988 327.9515 12.59495783660963
SL-14 R/B               
1 20262U 89080C   26022.46703313  .00000379  00000+0  11494-3 0  9996
2 20262  82.5919 202.8654 1229586 290.4802  56.8645 12.50443438654376
DELTA 1 R/B             
1 20323U 89089B   26022.47512884  .00000776  00000+0  20104-3 0  9994
2 20323  97.0733 237.2538 0067537 268.8052  90.5408 14.50616064889037
ARIANE 40 R/B           
1 20443U 90005H   26022.39299553  .00000654  00000+0  22170-3 0  9993
2 20443  98.3180  84.4107 0009726 350.9543   9.1469 14.39834412886146
